NORAD_CAT_ID,OBJECT_NAME,OBJECT_TYPE,EPOCH,MEAN_MOTION,ECCENTRICITY,INCLINATION,RA_OF_ASC_NODE,ARG_OF_PERICENTER,MEAN_ANOMALY,BSTAR,MEAN_MOTION_DOT,MEAN_MOTION_DDOT,TLE_LINE0,TLE_LINE1,TLE_LINE2,SEMIMAJOR_AXIS,PERIOD,APOGEE,PERIGEE,DECAYED
52845.0,STARLINK-4168,PAYLOAD,2023-12-09 13:06:30,15.08831033,0.0001203,53.2156,120.4467,49.3042,310.8054,-7.5233e-05,-1.485e-05,0.0,0 STARLINK-4168,1 52845U 22062R   23343.54618760 -.00001485  00000-0 -75233-4 0  9992,2 52845  53.2156 120.4467 0001203  49.3042 310.8054 15.08831033 81822,6917.908,95.438,540.605,538.941,0.0
52845.0,STARLINK-4168,PAYLOAD,2023-12-10 14:32:40,15.08841155,9.56e-05,53.2166,115.6824,64.7114,295.3977,-0.00010907,-2.023e-05,0.0,0 STARLINK-4168,1 52845U 22062R   23344.60602320 -.00002023  00000-0 -10907-3 0  9990,2 52845  53.2166 115.6824 0000956  64.7114 295.3977 15.08841155 81985,6917.877,95.437,540.403,539.081,0.0
52845.0,STARLINK-4168,PAYLOAD,2023-12-10 16:08:03,15.08841386,0.0001248,53.2173,115.3872,84.6287,275.4848,-9.1034e-05,-1.736e-05,0.0,0 STARLINK-4168,1 52845U 22062R   23344.67226276 -.00001736  00000-0 -91034-4 0  9990,2 52845  53.2173 115.3872 0001248  84.6287 275.4848 15.08841386 82488,6917.876,95.437,540.605,538.878,0.0
52845.0,STARLINK-4168,PAYLOAD,2023-12-11 14:23:27,15.0883308,0.0001258,53.2174,111.2244,89.7511,270.3626,0.00013318,1.832e-05,0.0,0 STARLINK-4168,1 52845U 22062R   23345.59962640  .00001832  00000-0  13318-3 0  9997,2 52845  53.2174 111.2244 0001258  89.7511 270.3626 15.08833080 82136,6917.902,95.438,540.637,538.896,0.0
52845.0,STARLINK-4168,PAYLOAD,2023-12-11 15:58:50,15.08834954,0.0001263,53.2175,110.927,84.343,275.7707,0.00014883,2.081e-05,0.0,0 STARLINK-4168,1 52845U 22062R   23345.66586559  .00002081  00000-0  14883-3 0  9991,2 52845  53.2175 110.9270 0001263  84.3430 275.7707 15.08834954 82140,6917.896,95.438,540.635,538.887,0.0
52845.0,STARLINK-4168,PAYLOAD,2023-12-12 14:14:15,15.08838196,0.0001288,53.2175,106.7659,79.324,280.7897,8.1378e-05,1.007e-05,0.0,0 STARLINK-4168,1 52845U 22062R   23346.59322979  .00001007  00000-0  81378-4 0  9999,2 52845  53.2175 106.7659 0001288  79.3240 280.7897 15.08838196 82287,6917.886,95.438,540.642,538.86,0.0
52845.0,STARLINK-4168,PAYLOAD,2023-12-12 15:49:38,15.08839743,0.0001319,53.2176,106.4669,77.5368,282.5771,9.5158e-05,1.227e-05,0.0,0 STARLINK-4168,1 52845U 22062R   23346.65946857  .00001227  00000-0  95158-4 0  9998,2 52845  53.2176 106.4669 0001319  77.5368 282.5771 15.08839743 82787,6917.881,95.438,540.659,538.834,0.0
52845.0,STARLINK-4168,PAYLOAD,2023-12-13 14:05:01,15.08844941,0.0001663,53.2183,102.3011,62.9148,297.2014,9.789e-05,1.27e-05,0.0,0 STARLINK-4168,1 52845U 22062R   23347.58682600  .00001270  00000-0  97890-4 0  9997,2 52845  53.2183 102.3011 0001663  62.9148 297.2014 15.08844941 82438,6917.865,95.437,540.881,538.58,0.0
52845.0,STARLINK-4168,PAYLOAD,2023-12-14 12:20:25,15.088438,0.0001373,53.2171,98.1404,75.8494,284.2651,5.6393e-05,6.1e-06,0.0,0 STARLINK-4168,1 52845U 22062R   23348.51418621  .00000610  00000-0  56393-4 0  9991,2 52845  53.2171  98.1404 0001373  75.8494 284.2651 15.08843800 83064,6917.869,95.437,540.684,538.784,0.0
52845.0,STARLINK-4168,PAYLOAD,2023-12-14 13:55:48,15.08844945,0.0001415,53.2171,97.8448,73.8921,286.2226,6.7847e-05,7.92e-06,0.0,0 STARLINK-4168,1 52845U 22062R   23348.58042546  .00000792  00000-0  67847-4 0  9994,2 52845  53.2171  97.8448 0001415  73.8921 286.2226 15.08844945 82585,6917.865,95.437,540.709,538.751,0.0
52845.0,STARLINK-4168,PAYLOAD,2023-12-15 12:11:13,15.08833842,0.000157,53.2184,93.6892,84.4646,275.6525,-2.2264e-05,-6.42e-06,0.0,0 STARLINK-4168,1 52845U 22062R   23349.50779635 -.00000642  00000-0 -22264-4 0  9993,2 52845  53.2184  93.6892 0001570  84.4646 275.6525 15.08833842 83219,6917.899,95.438,540.85,538.678,0.0
52845.0,STARLINK-4168,PAYLOAD,2023-12-15 13:46:36,15.08835001,0.0001624,53.2187,93.3891,86.3427,273.7751,-1.5033e-05,-5.27e-06,0.0,0 STARLINK-4168,1 52845U 22062R   23349.57403517 -.00000527  00000-0 -15033-4 0  9991,2 52845  53.2187  93.3891 0001624  86.3427 273.7751 15.08835001 82731,6917.896,95.438,540.884,538.637,0.0
52845.0,STARLINK-4168,PAYLOAD,2023-12-16 12:02:00,15.08833499,0.0001402,53.2177,89.22,74.1628,285.9519,0.00017639,2.52e-05,0.0,0 STARLINK-4168,1 52845U 22062R   23350.50139110  .00002520  00000-0  17639-3 0  9997,2 52845  53.2177  89.2200 0001402  74.1628 285.9519 15.08833499 83366,6917.9,95.438,540.735,538.795,0.0
52845.0,STARLINK-4168,PAYLOAD,2023-12-16 13:37:22,15.0884715,0.0001489,53.2172,88.9221,87.4196,272.6966,7.7816e-05,9.51e-06,0.0,0 STARLINK-4168,1 52845U 22062R   23350.56762645  .00000951  00000-0  77816-4 0  9998,2 52845  53.2172  88.9221 0001489  87.4196 272.6966 15.08847150 82886,6917.859,95.437,540.754,538.693,0.0
52845.0,STARLINK-4168,PAYLOAD,2023-12-17 11:52:47,15.08836278,0.0001506,53.2165,84.7589,95.272,264.8444,6.6492e-05,7.7e-06,0.0,0 STARLINK-4168,1 52845U 22062R   23351.49499618  .00000770  00000-0  66492-4 0  9995,2 52845  53.2165  84.7589 0001506  95.2720 264.8444 15.08836278 83513,6917.892,95.438,540.799,538.715,0.0
52845.0,STARLINK-4168,PAYLOAD,2023-12-18 11:43:34,15.08849838,0.0001495,53.2179,80.2972,98.6141,261.502,5.4573e-05,5.81e-06,0.0,0 STARLINK-4168,1 52845U 22062R   23352.48858886  .00000581  00000-0  54573-4 0  9998,2 52845  53.2179  80.2972 0001495  98.6141 261.5020 15.08849838 83662,6917.85,95.437,540.75,538.681,0.0
52845.0,STARLINK-4168,PAYLOAD,2023-12-18 13:18:57,15.08852597,0.000147,53.2182,79.9996,95.912,264.204,6.3358e-05,7.21e-06,0.0,0 STARLINK-4168,1 52845U 22062R   23352.55482681  .00000721  00000-0  63358-4 0  9999,2 52845  53.2182  79.9996 0001470  95.9120 264.2040 15.08852597 83182,6917.842,95.437,540.724,538.69,0.0
52845.0,STARLINK-4168,PAYLOAD,2023-12-19 11:34:21,15.08842172,0.0001501,53.2172,75.8425,96.0433,264.073,2.2133e-05,6.4e-07,0.0,0 STARLINK-4168,1 52845U 22062R   23353.48219144  .00000064  00000-0  22133-4 0  9990,2 52845  53.2172  75.8425 0001501  96.0433 264.0730 15.08842172 83819,6917.874,95.437,540.777,538.7,0.0
52845.0,STARLINK-4168,PAYLOAD,2023-12-19 13:09:44,15.08844051,0.0001499,53.2175,75.5428,86.8355,273.2809,5.0195e-05,5.11e-06,0.0,0 STARLINK-4168,1 52845U 22062R   23353.54843071  .00000511  00000-0  50195-4 0  9995,2 52845  53.2175  75.5428 0001499  86.8355 273.2809 15.08844051 83332,6917.868,95.437,540.77,538.696,0.0
52845.0,STARLINK-4168,PAYLOAD,2023-12-20 11:25:09,15.0883318,0.00014,53.2171,71.3803,83.3356,276.7795,-0.00014889,-2.656e-05,0.0,0 STARLINK-4168,1 52845U 22062R   23354.47579923 -.00002656  00000-0 -14889-3 0  9993,2 52845  53.2171  71.3803 0001400  83.3356 276.7795 15.08833180 83966,6917.901,95.438,540.735,538.798,0.0
52845.0,STARLINK-4168,PAYLOAD,2023-12-20 13:00:32,15.08836094,0.0001548,53.2174,71.0825,71.9942,288.1219,-9.4197e-05,-1.787e-05,0.0,0 STARLINK-4168,1 52845U 22062R   23354.54203892 -.00001787  00000-0 -94197-4 0  9995,2 52845  53.2174  71.0825 0001548  71.9942 288.1219 15.08836094 83489,6917.892,95.438,540.828,538.686,0.0
52845.0,STARLINK-4168,PAYLOAD,2023-12-21 11:15:56,15.08842493,0.0001847,53.2184,66.9183,63.9819,296.1363,0.00012884,1.763e-05,0.0,0 STARLINK-4168,1 52845U 22062R   23355.46940351  .00001763  00000-0  12884-3 0  9999,2 52845  53.2184  66.9183 0001847  63.9819 296.1363 15.08842493 83621,6917.873,95.437,541.015,538.46,0.0
52845.0,STARLINK-4168,PAYLOAD,2023-12-22 11:06:43,15.08846151,0.0001581,53.2163,62.4708,77.1578,282.9591,0.00027733,4.129e-05,0.0,0 STARLINK-4168,1 52845U 22062R   23356.46300443  .00004129  00000-0  27733-3 0  9990,2 52845  53.2163  62.4708 0001581  77.1578 282.9591 15.08846151 83773,6917.862,95.437,540.82,538.633,0.0
52845.0,STARLINK-4168,PAYLOAD,2023-12-23 10:57:30,15.08846232,0.0001666,53.2173,57.9983,95.9939,264.1244,5.9497e-05,6.59e-06,0.0,0 STARLINK-4168,1 52845U 22062R   23357.45660016  .00000659  00000-0  59497-4 0  9992,2 52845  53.2173  57.9983 0001666  95.9939 264.1244 15.08846232 84410,6917.861,95.437,540.879,538.574,0.0
52845.0,STARLINK-4168,PAYLOAD,2023-12-23 14:08:16,15.0885136,0.0001586,53.218,57.3995,108.9071,251.2094,0.00016065,2.27e-05,0.0,0 STARLINK-4168,1 52845U 22062R   23357.58907630  .00002270  00000-0  16065-3 0  9996,2 52845  53.2180  57.3995 0001586 108.9071 251.2094 15.08851360 83943,6917.846,95.437,540.808,538.613,0.0
52845.0,STARLINK-4168,PAYLOAD,2023-12-24 04:26:45,15.08835706,0.0001607,53.2185,54.7285,96.6103,263.5072,-2.481e-05,-6.83e-06,0.0,0 STARLINK-4168,1 52845U 22062R   23358.18524505 -.00000683  00000-0 -24810-4 0  9995,2 52845  53.2185  54.7285 0001607  96.6103 263.5072 15.08835706 84527,6917.894,95.438,540.87,538.647,0.0
52845.0,STARLINK-4168,PAYLOAD,2023-12-24 09:12:53,15.08846207,0.0001941,53.2178,53.8282,121.9942,238.1239,3.7492e-05,3.09e-06,0.0,0 STARLINK-4168,1 52845U 22062R   23358.38395697  .00000309  00000-0  37492-4 0  9998,2 52845  53.2178  53.8282 0001941 121.9942 238.1239 15.08846207 84554,6917.861,95.437,541.069,538.384,0.0
52845.0,STARLINK-4168,PAYLOAD,2023-12-25 04:17:31,15.08841103,0.0001586,53.218,50.2665,100.9465,259.1706,8.1657e-05,1.012e-05,0.0,0 STARLINK-4168,1 52845U 22062R   23359.17884235  .00001012  00000-0  81657-4 0  9991,2 52845  53.2180  50.2665 0001586 100.9465 259.1706 15.08841103 84670,6917.877,95.437,540.839,538.645,0.0
52845.0,STARLINK-4168,PAYLOAD,2023-12-25 09:03:41,15.0884527,0.0001527,53.2177,49.3751,95.3135,264.8031,0.00014769,2.064e-05,0.0,0 STARLINK-4168,1 52845U 22062R   23359.37756063  .00002064  00000-0  14769-3 0  9997,2 52845  53.2177  49.3751 0001527  95.3135 264.8031 15.08845270 84210,6917.864,95.437,540.786,538.673,0.0
52845.0,STARLINK-4168,PAYLOAD,2023-12-26 08:54:27,15.08865594,0.0001651,53.2177,44.9184,103.8993,256.2183,0.00046055,7.054e-05,0.0,0 STARLINK-4168,1 52845U 22062R   23360.37115457  .00007054  00000-0  46055-3 0  9992,2 52845  53.2177  44.9184 0001651 103.8993 256.2183 15.08865594 84850,6917.802,95.436,540.809,538.525,0.0
